{
  "type": "FeatureCollection",
  "features": [
    {
      "type": "Feature",
      "properties": {
        "OBJECT_NAME": "EUTELSAT 8 WEST B",
        "OBJECT_ID": "2015-039B",
        "EPOCH": "2025-11-29T17:15:32.111424",
        "MEAN_MOTION": 1.00271734,
        "ECCENTRICITY": 0.0004178,
        "INCLINATION": 0.0693,
        "RA_OF_ASC_NODE": 12.7858,
        "ARG_OF_PERICENTER": 239.5643,
        "MEAN_ANOMALY": 67.4012,
        "EPHEMERIS_TYPE": 0,
        "CLASSIFICATION_TYPE": "U",
        "NORAD_CAT_ID": 40875,
        "ELEMENT_SET_NO": 999,
        "REV_AT_EPOCH": 3765,
        "BSTAR": 0,
        "MEAN_MOTION_DOT": -4.4e-07,
        "MEAN_MOTION_DDOT": 0,
        "norad_id": 40875,
        "name": "EUTELSAT 8 WEST B",
        "group": "eutelsat",
        "longitude_deg": NaN,
        "latitude_deg": NaN,
        "alt_km": NaN,
        "orbit_class": "HEO",
        "timestamp": "2025-11-30T04:52:16.841215+00:00"
      },
      "geometry": {
        "type": "Point",
        "coordinates": [
          NaN,
          NaN
        ]
      }
    },
    {
      "type": "Feature",
      "properties": {
        "OBJECT_NAME": "EUTELSAT 9B",
        "OBJECT_ID": "2016-005A",
        "EPOCH": "2025-11-29T19:03:09.726048",
        "MEAN_MOTION": 1.00270505,
        "ECCENTRICITY": 0.0004649,
        "INCLINATION": 0.0557,
        "RA_OF_ASC_NODE": 73.1687,
        "ARG_OF_PERICENTER": 188.7827,
        "MEAN_ANOMALY": 101.7707,
        "EPHEMERIS_TYPE": 0,
        "CLASSIFICATION_TYPE": "U",
        "NORAD_CAT_ID": 41310,
        "ELEMENT_SET_NO": 999,
        "REV_AT_EPOCH": 3611,
        "BSTAR": 0,
        "MEAN_MOTION_DOT": 8.3e-07,
        "MEAN_MOTION_DDOT": 0,
        "norad_id": 41310,
        "name": "EUTELSAT 9B",
        "group": "eutelsat",
        "longitude_deg": NaN,
        "latitude_deg": NaN,
        "alt_km": NaN,
        "orbit_class": "HEO",
        "timestamp": "2025-11-30T04:52:16.841637+00:00"
      },
      "geometry": {
        "type": "Point",
        "coordinates": [
          NaN,
          NaN
        ]
      }
    },
    {
      "type": "Feature",
      "properties": {
        "OBJECT_NAME": "EUTELSAT 65 WEST A",
        "OBJECT_ID": "2016-014A",
        "EPOCH": "2025-11-29T18:41:56.756832",
        "MEAN_MOTION": 1.00272605,
        "ECCENTRICITY": 0.0002568,
        "INCLINATION": 0.0666,
        "RA_OF_ASC_NODE": 35.9258,
        "ARG_OF_PERICENTER": 217.4658,
        "MEAN_ANOMALY": 30.8173,
        "EPHEMERIS_TYPE": 0,
        "CLASSIFICATION_TYPE": "U",
        "NORAD_CAT_ID": 41382,
        "ELEMENT_SET_NO": 999,
        "REV_AT_EPOCH": 3553,
        "BSTAR": 0,
        "MEAN_MOTION_DOT": -2.55e-06,
        "MEAN_MOTION_DDOT": 0,
        "norad_id": 41382,
        "name": "EUTELSAT 65 WEST A",
        "group": "eutelsat",
        "longitude_deg": NaN,
        "latitude_deg": NaN,
        "alt_km": NaN,
        "orbit_class": "HEO",
        "timestamp": "2025-11-30T04:52:16.841682+00:00"
      },
      "geometry": {
        "type": "Point",
        "coordinates": [
          NaN,
          NaN
        ]
      }
    },
    {
      "type": "Feature",
      "properties": {
        "OBJECT_NAME": "EUTELSAT 172B",
        "OBJECT_ID": "2017-029B",
        "EPOCH": "2025-11-29T14:29:54.729888",
        "MEAN_MOTION": 1.00270852,
        "ECCENTRICITY": 4.7e-06,
        "INCLINATION": 0.0332,
        "RA_OF_ASC_NODE": 156.5325,
        "ARG_OF_PERICENTER": 248.715,
        "MEAN_ANOMALY": 52.9821,
        "EPHEMERIS_TYPE": 0,
        "CLASSIFICATION_TYPE": "U",
        "NORAD_CAT_ID": 42741,
        "ELEMENT_SET_NO": 999,
        "REV_AT_EPOCH": 3173,
        "BSTAR": 0,
        "MEAN_MOTION_DOT": 1.6e-07,
        "MEAN_MOTION_DDOT": 0,
        "norad_id": 42741,
        "name": "EUTELSAT 172B",
        "group": "eutelsat",
        "longitude_deg": NaN,
        "latitude_deg": NaN,
        "alt_km": NaN,
        "orbit_class": "HEO",
        "timestamp": "2025-11-30T04:52:16.842443+00:00"
      },
      "geometry": {
        "type": "Point",
        "coordinates": [
          NaN,
          NaN
        ]
      }
    },
    {
      "type": "Feature",
      "properties": {
        "OBJECT_NAME": "EUTELSAT 7C",
        "OBJECT_ID": "2019-034B",
        "EPOCH": "2025-11-28T15:38:56.167872",
        "MEAN_MOTION": 1.00269308,
        "ECCENTRICITY": 0.0003089,
        "INCLINATION": 0.0777,
        "RA_OF_ASC_NODE": 186.9483,
        "ARG_OF_PERICENTER": 43.1815,
        "MEAN_ANOMALY": 79.4351,
        "EPHEMERIS_TYPE": 0,
        "CLASSIFICATION_TYPE": "U",
        "NORAD_CAT_ID": 44334,
        "ELEMENT_SET_NO": 999,
        "REV_AT_EPOCH": 482,
        "BSTAR": 0,
        "MEAN_MOTION_DOT": 6.9e-07,
        "MEAN_MOTION_DDOT": 0,
        "norad_id": 44334,
        "name": "EUTELSAT 7C",
        "group": "eutelsat",
        "longitude_deg": NaN,
        "latitude_deg": NaN,
        "alt_km": NaN,
        "orbit_class": "HEO",
        "timestamp": "2025-11-30T04:52:16.844795+00:00"
      },
      "geometry": {
        "type": "Point",
        "coordinates": [
          NaN,
          NaN
        ]
      }
    },
    {
      "type": "Feature",
      "properties": {
        "OBJECT_NAME": "EUTELSAT KONNECT",
        "OBJECT_ID": "2020-005B",
        "EPOCH": "2025-11-29T19:02:32.283744",
        "MEAN_MOTION": 1.00268896,
        "ECCENTRICITY": 0.0001584,
        "INCLINATION": 0.0664,
        "RA_OF_ASC_NODE": 99.1277,
        "ARG_OF_PERICENTER": 190.9242,
        "MEAN_ANOMALY": 71.7135,
        "EPHEMERIS_TYPE": 0,
        "CLASSIFICATION_TYPE": "U",
        "NORAD_CAT_ID": 45027,
        "ELEMENT_SET_NO": 999,
        "REV_AT_EPOCH": 2232,
        "BSTAR": 0,
        "MEAN_MOTION_DOT": 7e-07,
        "MEAN_MOTION_DDOT": 0,
        "norad_id": 45027,
        "name": "EUTELSAT KONNECT",
        "group": "eutelsat",
        "longitude_deg": NaN,
        "latitude_deg": NaN,
        "alt_km": NaN,
        "orbit_class": "HEO",
        "timestamp": "2025-11-30T04:52:16.845926+00:00"
      },
      "geometry": {
        "type": "Point",
        "coordinates": [
          NaN,
          NaN
        ]
      }
    },
    {
      "type": "Feature",
      "properties": {
        "OBJECT_NAME": "EUTELSAT QUANTUM",
        "OBJECT_ID": "2021-069B",
        "EPOCH": "2025-11-29T19:14:08.672064",
        "MEAN_MOTION": 1.00272065,
        "ECCENTRICITY": 0.0003404,
        "INCLINATION": 0.033,
        "RA_OF_ASC_NODE": 56.4539,
        "ARG_OF_PERICENTER": 205.4681,
        "MEAN_ANOMALY": 143.2642,
        "EPHEMERIS_TYPE": 0,
        "CLASSIFICATION_TYPE": "U",
        "NORAD_CAT_ID": 49056,
        "ELEMENT_SET_NO": 999,
        "REV_AT_EPOCH": 1592,
        "BSTAR": 0,
        "MEAN_MOTION_DOT": 1.47e-06,
        "MEAN_MOTION_DDOT": 0,
        "norad_id": 49056,
        "name": "EUTELSAT QUANTUM",
        "group": "eutelsat",
        "longitude_deg": NaN,
        "latitude_deg": NaN,
        "alt_km": NaN,
        "orbit_class": "HEO",
        "timestamp": "2025-11-30T04:52:16.854085+00:00"
      },
      "geometry": {
        "type": "Point",
        "coordinates": [
          NaN,
          NaN
        ]
      }
    },
    {
      "type": "Feature",
      "properties": {
        "OBJECT_NAME": "EUTELSAT KONNECT VHTS",
        "OBJECT_ID": "2022-110A",
        "EPOCH": "2025-11-29T03:36:40.584672",
        "MEAN_MOTION": 1.00268613,
        "ECCENTRICITY": 0.00026632,
        "INCLINATION": 0.0571,
        "RA_OF_ASC_NODE": 106.9647,
        "ARG_OF_PERICENTER": 115.3474,
        "MEAN_ANOMALY": 262.8626,
        "EPHEMERIS_TYPE": 0,
        "CLASSIFICATION_TYPE": "U",
        "NORAD_CAT_ID": 53765,
        "ELEMENT_SET_NO": 999,
        "REV_AT_EPOCH": 482,
        "BSTAR": 0,
        "MEAN_MOTION_DOT": 3.8e-07,
        "MEAN_MOTION_DDOT": 0,
        "norad_id": 53765,
        "name": "EUTELSAT KONNECT VHTS",
        "group": "eutelsat",
        "longitude_deg": NaN,
        "latitude_deg": NaN,
        "alt_km": NaN,
        "orbit_class": "HEO",
        "timestamp": "2025-11-30T04:52:16.865462+00:00"
      },
      "geometry": {
        "type": "Point",
        "coordinates": [
          NaN,
          NaN
        ]
      }
    }
  ]
}